MAROC-TUBSAT            
1 27004U 01056D   26199.46578654 -.00000041  00000+0  64738-5 0  9995
2 27004  99.8101  16.9174 0020554  64.0317 325.6217 13.70263603230471
METEOSAT-10 (MSG-3)     
1 38552U 12035B   26199.33723751 -.00000017  00000+0  00000+0 0  9999
2 38552   4.7438  60.8671 0001302  16.8895 339.8317  1.00271778 51162
METEOR-M 2              
1 40069U 14037A   26199.89140348 -.00000028  00000+0  64423-5 0  9992
2 40069  98.5139 174.5106 0004917 314.4771  45.6005 14.21470054623827
METEOSAT-11 (MSG-4)     
1 40732U 15034A   26199.69545397  .00000054  00000+0  00000+0 0  9991
2 40732   3.2774  70.9065 0002084 354.8968 130.3137  1.00272952  7536
METEOR-M2 2             
1 44387U 19038A   26199.85535330 -.00000065  00000+0 -84212-5 0  9990
2 44387  98.9166 187.6111 0000467 355.6140   4.5034 14.24373360365804
LUDI TANCE 1-01A (L-SA*)
1 51284U 22007A   26199.84501348 -.00000050  00000+0  43793-6 0  9998
2 51284  97.8107 206.8159 0001607  90.3940 269.7461 14.88410077243187
LUDI TANCE 1-01B (L-SA*)
1 51822U 22018A   26199.87862883  .00000231  00000+0  30811-4 0  9990
2 51822  97.8113 206.8474 0001655  91.0410 269.0996 14.88416317238425
METEOR-M2 3             
1 57166U 23091A   26199.85699715 -.00000025  00000+0  78449-5 0  9991
2 57166  98.6066 254.1843 0005121  82.1426 278.0335 14.24049101159022
LUDI TANCE-4 01A        
1 57624U 23120A   26199.42629802 -.00000185  00000+0  00000+0 0  9995
2 57624  15.0845 193.1922 0001579  12.4085 333.6523  1.00275474 10857
METEOR-M2 4             
1 59051U 24039A   26199.83730600 -.00000014  00000+0  13436-4 0  9998
2 59051  98.7028 158.7407 0008247  79.7459 280.4648 14.22432328123762
