{
 "generated_at": "2026-07-19T07:26:41Z",
 "sources": [
  {
   "name": "CelesTrak",
   "url": "https://celestrak.org/NORAD/elements/",
   "license": "frei verfügbar; Attribution. Ursprünglich USSPACECOM/Space-Track."
  },
  {
   "name": "GCAT (J. McDowell, planet4589.org)",
   "url": "https://planet4589.org/space/gcat/",
   "license": "CC-BY 4.0"
  }
 ],
 "satellites": [
  {
   "norad": 51284,
   "name": "LUDI TANCE 1-01A (L-SAR 01A)",
   "intl": "2022-007A",
   "group": "sar",
   "gcat": {
    "class": "C",
    "category": "IMG-R",
    "owner": "SAST",
    "state": "CN"
   },
   "omm": {
    "OBJECT_NAME": "LUDI TANCE 1-01A (L-SAR 01A)",
    "OBJECT_ID": "2022-007A",
    "EPOCH": "2026-07-18T20:16:49.164672",
    "MEAN_MOTION": 14.88410077,
    "ECCENTRICITY": 0.0001607,
    "INCLINATION": 97.8107,
    "RA_OF_ASC_NODE": 206.8159,
    "ARG_OF_PERICENTER": 90.394,
    "MEAN_ANOMALY": 269.7461,
    "EPHEMERIS_TYPE": 0,
    "CLASSIFICATION_TYPE": "U",
    "NORAD_CAT_ID": 51284,
    "ELEMENT_SET_NO": 999,
    "REV_AT_EPOCH": 24318,
    "BSTAR": 4.3793e-7,
    "MEAN_MOTION_DOT": -5e-7,
    "MEAN_MOTION_DDOT": 0
   }
  },
  {
   "norad": 51822,
   "name": "LUDI TANCE 1-01B (L-SAR 01B)",
   "intl": "2022-018A",
   "group": "sar",
   "gcat": {
    "class": "C",
    "category": "IMG-R",
    "owner": "SAST",
    "state": "CN"
   },
   "omm": {
    "OBJECT_NAME": "LUDI TANCE 1-01B (L-SAR 01B)",
    "OBJECT_ID": "2022-018A",
    "EPOCH": "2026-07-18T21:05:13.530912",
    "MEAN_MOTION": 14.88416317,
    "ECCENTRICITY": 0.0001655,
    "INCLINATION": 97.8113,
    "RA_OF_ASC_NODE": 206.8474,
    "ARG_OF_PERICENTER": 91.041,
    "MEAN_ANOMALY": 269.0996,
    "EPHEMERIS_TYPE": 0,
    "CLASSIFICATION_TYPE": "U",
    "NORAD_CAT_ID": 51822,
    "ELEMENT_SET_NO": 999,
    "REV_AT_EPOCH": 23842,
    "BSTAR": 0.000030811,
    "MEAN_MOTION_DOT": 0.00000231,
    "MEAN_MOTION_DDOT": 0
   }
  },
  {
   "norad": 57624,
   "name": "LUDI TANCE-4 01A",
   "intl": "2023-120A",
   "group": "sar",
   "gcat": {
    "class": "D",
    "category": "IMG-R",
    "owner": "CNSA",
    "state": "CN"
   },
   "omm": {
    "OBJECT_NAME": "LUDI TANCE-4 01A",
    "OBJECT_ID": "2023-120A",
    "EPOCH": "2026-07-18T10:13:52.148928",
    "MEAN_MOTION": 1.00275474,
    "ECCENTRICITY": 0.0001579,
    "INCLINATION": 15.0845,
    "RA_OF_ASC_NODE": 193.1922,
    "ARG_OF_PERICENTER": 12.4085,
    "MEAN_ANOMALY": 333.6523,
    "EPHEMERIS_TYPE": 0,
    "CLASSIFICATION_TYPE": "U",
    "NORAD_CAT_ID": 57624,
    "ELEMENT_SET_NO": 999,
    "REV_AT_EPOCH": 1085,
    "BSTAR": 0,
    "MEAN_MOTION_DOT": -0.00000185,
    "MEAN_MOTION_DDOT": 0
   }
  },
  {
   "norad": 27004,
   "name": "MAROC-TUBSAT",
   "intl": "2001-056D",
   "group": "resource",
   "gcat": {
    "class": null,
    "category": null,
    "owner": null,
    "state": null
   },
   "omm": {
    "OBJECT_NAME": "MAROC-TUBSAT",
    "OBJECT_ID": "2001-056D",
    "EPOCH": "2026-07-18T11:10:43.957056",
    "MEAN_MOTION": 13.70263603,
    "ECCENTRICITY": 0.00205547,
    "INCLINATION": 99.8101,
    "RA_OF_ASC_NODE": 16.9174,
    "ARG_OF_PERICENTER": 64.0317,
    "MEAN_ANOMALY": 325.6217,
    "EPHEMERIS_TYPE": 0,
    "CLASSIFICATION_TYPE": "U",
    "NORAD_CAT_ID": 27004,
    "ELEMENT_SET_NO": 999,
    "REV_AT_EPOCH": 23047,
    "BSTAR": 0.000006473825,
    "MEAN_MOTION_DOT": -4.1e-7,
    "MEAN_MOTION_DDOT": 0
   }
  },
  {
   "norad": 40069,
   "name": "METEOR-M 2",
   "intl": "2014-037A",
   "group": "weather",
   "gcat": {
    "class": "C",
    "category": "MET",
    "owner": "RGMS/VNIIEMI",
    "state": "RU"
   },
   "omm": {
    "OBJECT_NAME": "METEOR-M 2",
    "OBJECT_ID": "2014-037A",
    "EPOCH": "2026-07-18T21:23:37.260672",
    "MEAN_MOTION": 14.21470054,
    "ECCENTRICITY": 0.0004917,
    "INCLINATION": 98.5139,
    "RA_OF_ASC_NODE": 174.5106,
    "ARG_OF_PERICENTER": 314.4771,
    "MEAN_ANOMALY": 45.6005,
    "EPHEMERIS_TYPE": 0,
    "CLASSIFICATION_TYPE": "U",
    "NORAD_CAT_ID": 40069,
    "ELEMENT_SET_NO": 999,
    "REV_AT_EPOCH": 62382,
    "BSTAR": 0.0000064423,
    "MEAN_MOTION_DOT": -2.8e-7,
    "MEAN_MOTION_DDOT": 0
   }
  },
  {
   "norad": 44387,
   "name": "METEOR-M2 2",
   "intl": "2019-038A",
   "group": "weather",
   "gcat": {
    "class": "C",
    "category": "MET",
    "owner": "RGMS/VNIIEMI",
    "state": "RU"
   },
   "omm": {
    "OBJECT_NAME": "METEOR-M2 2",
    "OBJECT_ID": "2019-038A",
    "EPOCH": "2026-07-18T20:31:42.525120",
    "MEAN_MOTION": 14.2437336,
    "ECCENTRICITY": 0.0000467,
    "INCLINATION": 98.9166,
    "RA_OF_ASC_NODE": 187.6111,
    "ARG_OF_PERICENTER": 355.614,
    "MEAN_ANOMALY": 4.5034,
    "EPHEMERIS_TYPE": 0,
    "CLASSIFICATION_TYPE": "U",
    "NORAD_CAT_ID": 44387,
    "ELEMENT_SET_NO": 999,
    "REV_AT_EPOCH": 36580,
    "BSTAR": -0.0000084212,
    "MEAN_MOTION_DOT": -6.5e-7,
    "MEAN_MOTION_DDOT": 0
   }
  },
  {
   "norad": 57166,
   "name": "METEOR-M2 3",
   "intl": "2023-091A",
   "group": "weather",
   "gcat": {
    "class": "C",
    "category": "MET",
    "owner": "RGMS/VNIIEMI",
    "state": "RU"
   },
   "omm": {
    "OBJECT_NAME": "METEOR-M2 3",
    "OBJECT_ID": "2023-091A",
    "EPOCH": "2026-07-18T20:34:04.553760",
    "MEAN_MOTION": 14.24049101,
    "ECCENTRICITY": 0.0005121,
    "INCLINATION": 98.6066,
    "RA_OF_ASC_NODE": 254.1843,
    "ARG_OF_PERICENTER": 82.1426,
    "MEAN_ANOMALY": 278.0335,
    "EPHEMERIS_TYPE": 0,
    "CLASSIFICATION_TYPE": "U",
    "NORAD_CAT_ID": 57166,
    "ELEMENT_SET_NO": 999,
    "REV_AT_EPOCH": 15902,
    "BSTAR": 0.0000078449,
    "MEAN_MOTION_DOT": -2.5e-7,
    "MEAN_MOTION_DDOT": 0
   }
  },
  {
   "norad": 59051,
   "name": "METEOR-M2 4",
   "intl": "2024-039A",
   "group": "weather",
   "gcat": {
    "class": "C",
    "category": "MET",
    "owner": "RGMS/VNIIEMI",
    "state": "RU"
   },
   "omm": {
    "OBJECT_NAME": "METEOR-M2 4",
    "OBJECT_ID": "2024-039A",
    "EPOCH": "2026-07-18T20:05:43.238400",
    "MEAN_MOTION": 14.22432328,
    "ECCENTRICITY": 0.0008247,
    "INCLINATION": 98.7028,
    "RA_OF_ASC_NODE": 158.7407,
    "ARG_OF_PERICENTER": 79.7459,
    "MEAN_ANOMALY": 280.4648,
    "EPHEMERIS_TYPE": 0,
    "CLASSIFICATION_TYPE": "U",
    "NORAD_CAT_ID": 59051,
    "ELEMENT_SET_NO": 999,
    "REV_AT_EPOCH": 12376,
    "BSTAR": 0.000013436,
    "MEAN_MOTION_DOT": -1.4e-7,
    "MEAN_MOTION_DDOT": 0
   }
  },
  {
   "norad": 38552,
   "name": "METEOSAT-10 (MSG-3)",
   "intl": "2012-035B",
   "group": "weather",
   "gcat": {
    "class": "C",
    "category": "MET",
    "owner": "EUMET",
    "state": "I-EUM"
   },
   "omm": {
    "OBJECT_NAME": "METEOSAT-10 (MSG-3)",
    "OBJECT_ID": "2012-035B",
    "EPOCH": "2026-07-18T08:05:37.320864",
    "MEAN_MOTION": 1.00271778,
    "ECCENTRICITY": 0.00013021,
    "INCLINATION": 4.7438,
    "RA_OF_ASC_NODE": 60.8671,
    "ARG_OF_PERICENTER": 16.8895,
    "MEAN_ANOMALY": 339.8317,
    "EPHEMERIS_TYPE": 0,
    "CLASSIFICATION_TYPE": "U",
    "NORAD_CAT_ID": 38552,
    "ELEMENT_SET_NO": 999,
    "REV_AT_EPOCH": 5116,
    "BSTAR": 0,
    "MEAN_MOTION_DOT": -1.7e-7,
    "MEAN_MOTION_DDOT": 0
   }
  },
  {
   "norad": 40732,
   "name": "METEOSAT-11 (MSG-4)",
   "intl": "2015-034A",
   "group": "weather",
   "gcat": {
    "class": "C",
    "category": "MET",
    "owner": "EUMET",
    "state": "I-EUM"
   },
   "omm": {
    "OBJECT_NAME": "METEOSAT-11 (MSG-4)",
    "OBJECT_ID": "2015-034A",
    "EPOCH": "2026-07-18T16:41:27.223008",
    "MEAN_MOTION": 1.00272952,
    "ECCENTRICITY": 0.0002084,
    "INCLINATION": 3.2774,
    "RA_OF_ASC_NODE": 70.9065,
    "ARG_OF_PERICENTER": 354.8968,
    "MEAN_ANOMALY": 130.3137,
    "EPHEMERIS_TYPE": 0,
    "CLASSIFICATION_TYPE": "U",
    "NORAD_CAT_ID": 40732,
    "ELEMENT_SET_NO": 999,
    "REV_AT_EPOCH": 753,
    "BSTAR": 0,
    "MEAN_MOTION_DOT": 5.4e-7,
    "MEAN_MOTION_DDOT": 0
   }
  }
 ]
}
